[{"OBJECT_NAME":"STARLINK-6283","OBJECT_ID":"2023-061AJ","EPOCH":"2026-03-09T09:58:56.047008","MEAN_MOTION":15.02521645,"ECCENTRICITY":0.00010296,"INCLINATION":43.0028,"RA_OF_ASC_NODE":185.9368,"ARG_OF_PERICENTER":250.257,"MEAN_ANOMALY":109.8161,"EPHEMERIS_TYPE":0,"CLASSIFICATION_TYPE":"U","NORAD_CAT_ID":56406,"ELEMENT_SET_NO":999,"REV_AT_EPOCH":15686,"BSTAR":2.9084906e-5,"MEAN_MOTION_DOT":1.89e-6,"MEAN_MOTION_DDOT":0},{"OBJECT_NAME":"CZ-6A DEB","OBJECT_ID":"2024-140AET","EPOCH":"2026-03-09T12:52:08.504256","MEAN_MOTION":14.9565513,"ECCENTRICITY":0.00551091,"INCLINATION":88.9325,"RA_OF_ASC_NODE":275.873,"ARG_OF_PERICENTER":183.9615,"MEAN_ANOMALY":176.1189,"EPHEMERIS_TYPE":0,"CLASSIFICATION_TYPE":"U","NORAD_CAT_ID":64653,"ELEMENT_SET_NO":999,"REV_AT_EPOCH":7426,"BSTAR":0.0038297655,"MEAN_MOTION_DOT":0.00044109,"MEAN_MOTION_DDOT":0}]
